GPS BIIR-2  (PRN 13)    
1 24876U 97035A   21322.46300684  .00000085  00000+0  00000+0 0  9993
2 24876  55.4845 163.9050 0055093  54.6603 305.9335  2.00562902178426
GPS BIIR-4  (PRN 20)    
1 26360U 00025A   21322.88893139 -.00000040  00000+0  00000+0 0  9996
2 26360  53.8922  87.5792 0054611 176.3273 218.9008  2.00561442157759
GPS BIIR-8  (PRN 16)    
1 27663U 03005A   21322.61319293 -.00000053  00000+0  00000+0 0  9993
2 27663  55.6626 281.4299 0122159  38.2941 133.9153  2.00577155137781
GPS BIIR-9  (PRN 21)    
1 27704U 03010A   21322.59859583 -.00000100  00000+0  00000+0 0  9996
2 27704  54.9353  31.8561 0244850 299.1608  82.1933  2.00570514136586
GPS BIIR-10 (PRN 22)    
1 28129U 03058A   21322.65360638 -.00000036  00000+0  00000+0 0  9993
2 28129  53.7035  90.2224 0069167 308.5250  50.8288  2.00562504131266
GPS BIIR-11 (PRN 19)    
1 28190U 04009A   21322.88670287 -.00000079  00000+0  00000+0 0  9994
2 28190  56.1176 342.3426 0087323 113.8643  58.6498  2.00565126129426
GPS BIIR-13 (PRN 02)    
1 28474U 04045A   21322.66377340 -.00000099  00000+0  00000+0 0  9991
2 28474  55.2668  31.9142 0207580 275.2678   5.1199  2.00549555124904
GPS BIIRM-1 (PRN 17)    
1 28874U 05038A   21322.36848118 -.00000078  00000+0  00000+0 0  9998
2 28874  56.1934 339.7864 0139742 272.0228 269.3184  2.00560742118300
GPS BIIRM-2 (PRN 31)    
1 29486U 06042A   21322.60438293  .00000028  00000+0  00000+0 0  9994
2 29486  54.7425 217.6643 0102970  17.9041 249.4883  2.00566601110868
GPS BIIRM-3 (PRN 12)    
1 29601U 06052A   21321.68504563 -.00000060  00000+0  00000+0 0  9992
2 29601  55.6634 280.3968 0081402  69.8489 291.0018  2.00566401109863
GPS BIIRM-4 (PRN 15)    
1 32260U 07047A   21322.48694048  .00000072  00000+0  00000+0 0  9991
2 32260  53.2624 149.2867 0136837  59.9331 301.4707  2.00559665103286
GPS BIIRM-5 (PRN 29)    
1 32384U 07062A   21322.80387477 -.00000077  00000+0  00000+0 0  9992
2 32384  56.3054 340.5037 0016780 142.1832 218.6494  2.00578209101997
GPS BIIRM-6 (PRN 07)    
1 32711U 08012A   21322.40596774  .00000028  00000+0  00000+0 0  9995
2 32711  54.4982 216.6556 0154825 228.7261 130.0056  2.00557611100229
GPS BIIRM-8 (PRN 05)    
1 35752U 09043A   21322.40010000 -.00000026  00000+0  00000+0 0  9990
2 35752  54.9157  94.0378 0058056  57.0818 314.6529  2.00570043 89838
GPS BIIF-1  (PRN 25)    
1 36585U 10022A   21322.47446569 -.00000051  00000+0  00000+0 0  9992
2 36585  54.9411 276.0316 0098598  54.3906 130.4160  2.00554420 84069
GPS BIIF-2  (PRN 01)    
1 37753U 11036A   21322.05187487 -.00000100  00000+0  00000+0 0  9996
2 37753  56.5019  36.9467 0109140  50.1065 272.3226  2.00564187 75739
GPS BIIF-3  (PRN 24)    
1 38833U 12053A   21322.08721232  .00000032  00000+0  00000+0 0  9994
2 38833  53.5501 212.0147 0118343  43.9058 317.1094  2.00559525 65900
GPS BIIF-4  (PRN 27)    
1 39166U 13023A   21321.94921790 -.00000077  00000+0  00000+0 0  9997
2 39166  55.8299 336.2581 0095552  34.7235 325.9349  2.00567205 62340
GPS BIIF-5  (PRN 30)    
1 39533U 14008A   21322.44634377  .00000026  00000+0  00000+0 0  9990
2 39533  53.6491 217.4848 0054297 204.8833 154.9277  2.00569607 56159
GPS BIIF-6  (PRN 06)    
1 39741U 14026A   21322.22508556 -.00000099  00000+0  00000+0 0  9997
2 39741  56.4679  36.4667 0026038 297.7611  62.0136  2.00570964 55008
GPS BIIF-7  (PRN 09)    
1 40105U 14045A   21321.81926840  .00000085  00000+0  00000+0 0  9992
2 40105  54.6497 155.2547 0021323 106.3870 253.9142  2.00563505 52539
GPS BIIF-8  (PRN 03)    
1 40294U 14068A   21322.68690156 -.00000021  00000+0  00000+0 0  9991
2 40294  55.6616  96.2724 0036868  55.4504 304.8678  2.00556750 51680
GPS BIIF-9  (PRN 26)    
1 40534U 15013A   21322.32212632 -.00000052  00000+0  00000+0 0  9993
2 40534  53.8450 273.4405 0063934  15.9034 344.2760  2.00565448 48298
GPS BIIF-10 (PRN 08)    
1 40730U 15033A   21322.48336823 -.00000077  00000+0  00000+0 0  9996
2 40730  55.3336 335.1657 0067765   1.1378 358.9114  2.00563108 46468
GPS BIIF-11 (PRN 10)    
1 41019U 15062A   21322.03532516 -.00000020  00000+0  00000+0 0  9995
2 41019  55.6523  96.1367 0073412 214.1315 145.3690  2.00563236 44293
GPS BIIF-12 (PRN 32)    
1 41328U 16007A   21321.63025906  .00000087  00000+0  00000+0 0  9995
2 41328  54.8727 155.8810 0053546 224.8249 134.8088  2.00555555 42296
GPS BIII-1  (PRN 04)    
1 43873U 18109A   21322.76951078  .00000080  00000+0  00000+0 0  9993
2 43873  55.0538 158.2101 0015471 189.0879 167.0252  2.00563144 21541
GPS BIII-2  (PRN 18)    
1 44506U 19056A   21322.80110385 -.00000097  00000+0  00000+0 0  9991
2 44506  55.5723  37.4404 0020677 181.2390  99.4956  2.00568074 16546
GPS BIII-3  (PRN 23)    
1 45854U 20041A   21322.86403506 -.00000024  00000+0  00000+0 0  9990
2 45854  55.3684  94.7060 0018142 167.0417 100.7457  2.00562230 10518
GPS BIII-4  (PRN 14)    
1 46826U 20078A   21322.88096466 -.00000050  00000+0  00000+0 0  9994
2 46826  54.7134 278.6363 0012091 189.1065  60.9967  2.00567093  7983
